start=new Date('2022-06-19T00:00:00.000Z').valueOf();
sats=[{"OBJECT_ID":"2020-062AD","ECCENTRICITY":"0.00015280","GP_ID":"206236013","MEAN_MOTION_DDOT":"0.0000000000000","RCS_SIZE":"LARGE","MEAN_MOTION":"15.06386130","CLASSIFICATION_TYPE":"U","BSTAR":"-0.00001661800000","TIME_SYSTEM":"UTC","PERIOD":"95.593","LAUNCH_DATE":"2020-09-03","NORAD_CAT_ID":"46352","SITE":"AFETR","TLE_LINE2":"2 46352  53.0571 354.9549 0001528  77.2304 282.8856 15.06386130 99179","APOAPSIS":"548.314","MEAN_ELEMENT_THEORY":"SGP4","CENTER_NAME":"EARTH","PERIAPSIS":"546.198","SEMIMAJOR_AXIS":"6925.391","MEAN_MOTION_DOT":"-0.00000529","RA_OF_ASC_NODE":"354.9549","OBJECT_NAME":"STARLINK-1653","EPOCH":"2022-06-15T18:43:17.056992","COUNTRY_CODE":"US","INCLINATION":"53.0571","ARG_OF_PERICENTER":"77.2304","MEAN_ANOMALY":"282.8856","ELEMENT_SET_NO":"999","REV_AT_EPOCH":"9917","DECAY_DATE":null,"FILE":"3496999","EPHEMERIS_TYPE":"0","OBJECT_TYPE":"PAYLOAD","TLE_LINE1":"1 46352U 20062AD  22166.78005853 -.00000529  00000-0 -16618-4 0  9997","REF_FRAME":"TEME"},{"ARG_OF_PERICENTER":"66.1167","MEAN_ANOMALY":"293.9986","ELEMENT_SET_NO":"999","OBJECT_NAME":"STARLINK-1656","EPOCH":"2022-06-15T20:16:09.305760","COUNTRY_CODE":"US","INCLINATION":"53.0552","TLE_LINE1":"1 46353U 20062AE  22166.84455215 -.00000096  00000-0  12473-4 0  9999","REF_FRAME":"TEME","REV_AT_EPOCH":"9889","DECAY_DATE":null,"FILE":"3496999","EPHEMERIS_TYPE":"0","OBJECT_TYPE":"PAYLOAD","MEAN_MOTION":"15.06400139","CLASSIFICATION_TYPE":"U","BSTAR":"0.00001247300000","TIME_SYSTEM":"UTC","LAUNCH_DATE":"2020-09-03","PERIOD":"95.592","OBJECT_ID":"2020-062AE","ECCENTRICITY":"0.00015640","GP_ID":"206234761","MEAN_MOTION_DDOT":"0.0000000000000","RCS_SIZE":"LARGE","PERIAPSIS":"546.130","SEMIMAJOR_AXIS":"6925.348","MEAN_MOTION_DOT":"-0.00000096","RA_OF_ASC_NODE":"14.6809","SITE":"AFETR","NORAD_CAT_ID":"46353","TLE_LINE2":"2 46353  53.0552  14.6809 0001564  66.1167 293.9986 15.06400139 98893","APOAPSIS":"548.296","MEAN_ELEMENT_THEORY":"SGP4","CENTER_NAME":"EARTH"},{"ELEMENT_SET_NO":"999","MEAN_ANOMALY":"304.5868","ARG_OF_PERICENTER":"55.5284","INCLINATION":"53.0562","COUNTRY_CODE":"US","OBJECT_NAME":"STARLINK-1657","EPOCH":"2022-06-15T23:11:18.663072","REF_FRAME":"TEME","TLE_LINE1":"1 46354U 20062AF  22166.96618823  .00000155  00000-0  29331-4 0  9995","OBJECT_TYPE":"PAYLOAD","DECAY_DATE":null,"FILE":"3497002","EPHEMERIS_TYPE":"0","REV_AT_EPOCH":"9891","LAUNCH_DATE":"2020-09-03","PERIOD":"95.592","TIME_SYSTEM":"UTC","BSTAR":"0.00002933100000","CLASSIFICATION_TYPE":"U","MEAN_MOTION":"15.06400913","GP_ID":"206286765","RCS_SIZE":"LARGE","MEAN_MOTION_DDOT":"0.0000000000000","ECCENTRICITY":"0.00017260","OBJECT_ID":"2020-062AF","RA_OF_ASC_NODE":"14.1127","MEAN_MOTION_DOT":"0.00000155","SEMIMAJOR_AXIS":"6925.346","PERIAPSIS":"546.015","APOAPSIS":"548.406","MEAN_ELEMENT_THEORY":"SGP4","CENTER_NAME":"EARTH","TLE_LINE2":"2 46354  53.0562  14.1127 0001726  55.5284 304.5868 15.06400913 98916","SITE":"AFETR","NORAD_CAT_ID":"46354"},{"MEAN_MOTION":"15.06389029","CLASSIFICATION_TYPE":"U","BSTAR":"-0.00005818300000","TIME_SYSTEM":"UTC","LAUNCH_DATE":"2020-09-03","PERIOD":"95.593","OBJECT_ID":"2020-062AG","ECCENTRICITY":"0.00015580","GP_ID":"206286512","MEAN_MOTION_DDOT":"0.0000000000000","RCS_SIZE":"LARGE","PERIAPSIS":"546.168","SEMIMAJOR_AXIS":"6925.382","MEAN_MOTION_DOT":"-0.00001148","RA_OF_ASC_NODE":"13.9467","SITE":"AFETR","NORAD_CAT_ID":"46355","TLE_LINE2":"2 46355  53.0566  13.9467 0001558  71.7854 288.3305 15.06389029 98921","CENTER_NAME":"EARTH","MEAN_ELEMENT_THEORY":"SGP4","APOAPSIS":"548.326","ARG_OF_PERICENTER":"71.7854","MEAN_ANOMALY":"288.3305","ELEMENT_SET_NO":"999","OBJECT_NAME":"STARLINK-1661","EPOCH":"2022-06-16T00:09:42.658272","COUNTRY_CODE":"US","INCLINATION":"53.0566","TLE_LINE1":"1 46355U 20062AG  22167.00674373 -.00001148  00000-0 -58183-4 0  9996","REF_FRAME":"TEME","REV_AT_EPOCH":"9892","FILE":"3497002","EPHEMERIS_TYPE":"0","DECAY_DATE":null,"OBJECT_TYPE":"PAYLOAD"},{"REV_AT_EPOCH":"9891","OBJECT_TYPE":"PAYLOAD","EPHEMERIS_TYPE":"0","FILE":"3497002","DECAY_DATE":null,"TLE_LINE1":"1 46356U 20062AH  22166.95050990 -.00000090  00000-0  12860-4 0  9999","REF_FRAME":"TEME","OBJECT_NAME":"STARLINK-1665","EPOCH":"2022-06-15T22:48:44.055360","INCLINATION":"53.0569","COUNTRY_CODE":"US","ARG_OF_PERICENTER":"70.4547","ELEMENT_SET_NO":"999","MEAN_ANOMALY":"289.6599","SITE":"AFETR","NORAD_CAT_ID":"46356","CENTER_NAME":"EARTH","MEAN_ELEMENT_THEORY":"SGP4","APOAPSIS":"548.203","TLE_LINE2":"2 46356  53.0569  14.1779 0001456  70.4547 289.6599 15.06406112 98917","SEMIMAJOR_AXIS":"6925.330","PERIAPSIS":"546.186","RA_OF_ASC_NODE":"14.1779","MEAN_MOTION_DOT":"-0.00000090","OBJECT_ID":"2020-062AH","MEAN_MOTION_DDOT":"0.0000000000000","GP_ID":"206285267","RCS_SIZE":"LARGE","ECCENTRICITY":"0.00014560","BSTAR":"0.00001286000000","CLASSIFICATION_TYPE":"U","MEAN_MOTION":"15.06406112","PERIOD":"95.592","LAUNCH_DATE":"2020-09-03","TIME_SYSTEM":"UTC"},{"TLE_LINE1":"1 46357U 20062AJ  22166.81691435 -.00001423  00000-0 -76636-4 0  9993","REF_FRAME":"TEME","REV_AT_EPOCH":"9917","EPHEMERIS_TYPE":"0","FILE":"3496999","DECAY_DATE":null,"OBJECT_TYPE":"PAYLOAD","ARG_OF_PERICENTER":"61.4086","MEAN_ANOMALY":"298.7052","ELEMENT_SET_NO":"999","OBJECT_NAME":"STARLINK-1666","EPOCH":"2022-06-15T19:36:21.399840","COUNTRY_CODE":"US","INCLINATION":"53.0547","PERIAPSIS":"546.210","SEMIMAJOR_AXIS":"6925.371","MEAN_MOTION_DOT":"-0.00001423","RA_OF_ASC_NODE":"354.7844","SITE":"AFETR","NORAD_CAT_ID":"46357","TLE_LINE2":"2 46357  53.0547 354.7844 0001482  61.4086 298.7052 15.06392714 99173","CENTER_NAME":"EARTH","MEAN_ELEMENT_THEORY":"SGP4","APOAPSIS":"548.262","MEAN_MOTION":"15.06392714","BSTAR":"-0.00007663600000","CLASSIFICATION_TYPE":"U","TIME_SYSTEM":"UTC","LAUNCH_DATE":"2020-09-03","PERIOD":"95.593","OBJECT_ID":"2020-062AJ","ECCENTRICITY":"0.00014820","GP_ID":"206234262","MEAN_MOTION_DDOT":"0.0000000000000","RCS_SIZE":"LARGE"},{"PERIAPSIS":"545.879","SEMIMAJOR_AXIS":"6925.348","MEAN_MOTION_DOT":"-0.00000632","RA_OF_ASC_NODE":"13.9809","NORAD_CAT_ID":"46358","SITE":"AFETR","TLE_LINE2":"2 46358  53.0580  13.9809 0001927  53.7766 306.3401 15.06400073 98923","MEAN_ELEMENT_THEORY":"SGP4","CENTER_NAME":"EARTH","APOAPSIS":"548.548","MEAN_MOTION":"15.06400073","CLASSIFICATION_TYPE":"U","BSTAR":"-0.00002354800000","TIME_SYSTEM":"UTC","LAUNCH_DATE":"2020-09-03","PERIOD":"95.592","OBJECT_ID":"2020-062AK","ECCENTRICITY":"0.00019270","GP_ID":"206286265","RCS_SIZE":"LARGE","MEAN_MOTION_DDOT":"0.0000000000000","TLE_LINE1":"1 46358U 20062AK  22166.99567728 -.00000632  00000-0 -23548-4 0  9995","REF_FRAME":"TEME","REV_AT_EPOCH":"9892","FILE":"3497002","EPHEMERIS_TYPE":"0","DECAY_DATE":null,"OBJECT_TYPE":"PAYLOAD","ARG_OF_PERICENTER":"53.7766","MEAN_ANOMALY":"306.3401","ELEMENT_SET_NO":"999","EPOCH":"2022-06-15T23:53:46.516992","OBJECT_NAME":"STARLINK-1690","COUNTRY_CODE":"US","INCLINATION":"53.0580"},{"ARG_OF_PERICENTER":"55.1990","MEAN_ANOMALY":"304.9141","ELEMENT_SET_NO":"999","OBJECT_NAME":"STARLINK-1707","EPOCH":"2022-06-15T17:03:06.113088","COUNTRY_CODE":"US","INCLINATION":"53.0561","TLE_LINE1":"1 46359U 20062AL  22166.71048742 -.00000233  00000-0  32842-5 0  9990","REF_FRAME":"TEME","REV_AT_EPOCH":"9950","DECAY_DATE":null,"EPHEMERIS_TYPE":"0","FILE":"3496999","OBJECT_TYPE":"PAYLOAD","MEAN_MOTION":"15.06385711","CLASSIFICATION_TYPE":"U","BSTAR":"0.00000328420000","TIME_SYSTEM":"UTC","LAUNCH_DATE":"2020-09-03","PERIOD":"95.593","OBJECT_ID":"2020-062AL","ECCENTRICITY":"0.00015110","GP_ID":"206235763","RCS_SIZE":"LARGE","MEAN_MOTION_DDOT":"0.0000000000000","PERIAPSIS":"546.211","SEMIMAJOR_AXIS":"6925.392","MEAN_MOTION_DOT":"-0.00000233","RA_OF_ASC_NODE":"330.2802","NORAD_CAT_ID":"46359","SITE":"AFETR","TLE_LINE2":"2 46359  53.0561 330.2802 0001511  55.1990 304.9141 15.06385711 99506","APOAPSIS":"548.304","MEAN_ELEMENT_THEORY":"SGP4","CENTER_NAME":"EARTH"},{"MEAN_ANOMALY":"289.2348","ELEMENT_SET_NO":"999","ARG_OF_PERICENTER":"70.8813","COUNTRY_CODE":"US","INCLINATION":"53.0550","EPOCH":"2022-06-15T17:34:55.675776","OBJECT_NAME":"STARLINK-1713","REF_FRAME":"TEME","TLE_LINE1":"1 46360U 20062AM  22166.73258884 -.00000064  00000-0  14632-4 0  9992","DECAY_DATE":null,"EPHEMERIS_TYPE":"0","FILE":"3496999","OBJECT_TYPE":"PAYLOAD","REV_AT_EPOCH":"9951","TIME_SYSTEM":"UTC","LAUNCH_DATE":"2020-09-03","PERIOD":"95.592","MEAN_MOTION":"15.06402986","BSTAR":"0.00001463200000","CLASSIFICATION_TYPE":"U","ECCENTRICITY":"0.00015850","MEAN_MOTION_DDOT":"0.0000000000000","GP_ID":"206236014","RCS_SIZE":"LARGE","OBJECT_ID":"2020-062AM","MEAN_MOTION_DOT":"-0.00000064","RA_OF_ASC_NODE":"330.1794","PERIAPSIS":"546.107","SEMIMAJOR_AXIS":"6925.339","TLE_LINE2":"2 46360  53.0550 330.1794 0001585  70.8813 289.2348 15.06402986 99513","APOAPSIS":"548.302","MEAN_ELEMENT_THEORY":"SGP4","CENTER_NAME":"EARTH","SITE":"AFETR","NORAD_CAT_ID":"46360"},{"OBJECT_ID":"2020-062AN","RCS_SIZE":"LARGE","GP_ID":"206204576","MEAN_MOTION_DDOT":"0.0000000000000","ECCENTRICITY":"0.00013870","CLASSIFICATION_TYPE":"U","BSTAR":"0.00008263800000","MEAN_MOTION":"15.06395701","LAUNCH_DATE":"2020-09-03","PERIOD":"95.592","TIME_SYSTEM":"UTC","NORAD_CAT_ID":"46361","SITE":"AFETR","CENTER_NAME":"EARTH","MEAN_ELEMENT_THEORY":"SGP4","APOAPSIS":"548.187","TLE_LINE2":"2 46361  53.0540 331.1914 0001387  83.8611 276.2536 15.06395701 99474","SEMIMAJOR_AXIS":"6925.362","PERIAPSIS":"546.266","RA_OF_ASC_NODE":"331.1914","MEAN_MOTION_DOT":"0.00000950","OBJECT_NAME":"STARLINK-1722","EPOCH":"2022-06-15T12:04:29.775360","INCLINATION":"53.0540","COUNTRY_CODE":"US","ARG_OF_PERICENTER":"83.8611","ELEMENT_SET_NO":"999","MEAN_ANOMALY":"276.2536","REV_AT_EPOCH":"9947","OBJECT_TYPE":"PAYLOAD","EPHEMERIS_TYPE":"0","FILE":"3496794","DECAY_DATE":null,"TLE_LINE1":"1 46361U 20062AN  22166.50312240  .00000950  00000-0  82638-4 0  9999","REF_FRAME":"TEME"}];
